XRISM                   
1 57800U 23137A   26068.97080784  .00006442  00000+0  36527-3 0  9992
2 57800  31.0015 281.8459 0008010  41.4505 318.6740 15.11505972137834
ACS3                    
1 59588U 24077B   26069.29002334  .00018252  00000+0  14679-1 0  9996
2 59588  97.2067  10.2667 0059947  75.2215 285.5581 13.89628680 94284
SZ-21 MODULE            
1 66515U 25246C   26067.73638915  .00047754  00000+0  41113-3 0  9994
2 66515  41.4736 209.2286 0001365 296.9264  63.1439 15.68463397 17929
